[{"OBJECT_NAME":"STARLINK-31195","OBJECT_ID":"2024-012K","EPOCH":"2026-03-08T14:17:25.487232","MEAN_MOTION":15.2759086,"ECCENTRICITY":0.00012135,"INCLINATION":43.0011,"RA_OF_ASC_NODE":171.8589,"ARG_OF_PERICENTER":278.6166,"MEAN_ANOMALY":81.4548,"EPHEMERIS_TYPE":0,"CLASSIFICATION_TYPE":"U","NORAD_CAT_ID":58796,"ELEMENT_SET_NO":999,"REV_AT_EPOCH":12106,"BSTAR":3.7317909e-5,"MEAN_MOTION_DOT":7.65e-6,"MEAN_MOTION_DDOT":0},{"OBJECT_NAME":"TRANSPORTER-12 OBJECT BA","OBJECT_ID":"2025-009BA","EPOCH":"2026-03-09T16:49:42.568896","MEAN_MOTION":15.27214003,"ECCENTRICITY":4.03e-5,"INCLINATION":97.3985,"RA_OF_ASC_NODE":151.139,"ARG_OF_PERICENTER":234.6623,"MEAN_ANOMALY":125.4579,"EPHEMERIS_TYPE":0,"CLASSIFICATION_TYPE":"U","NORAD_CAT_ID":62657,"ELEMENT_SET_NO":999,"REV_AT_EPOCH":6373,"BSTAR":0.00042732654,"MEAN_MOTION_DOT":0.0001133,"MEAN_MOTION_DDOT":0}]
