STARLINK-31195          
1 58796U 24012K   26067.59543388  .00000765  00000+0  37318-4 0  9993
2 58796  43.0011 171.8589 0001213 278.6166  81.4548 15.27590860121061
TRANSPORTER-12 OBJECT BA
1 62657U 25009BA  26068.70118713  .00011330  00000+0  42733-3 0  9991
2 62657  97.3985 151.1390 0000403 234.6623 125.4579 15.27214003 63739
